CYGFM01                 
1 41887U 16078D   26068.72752795  .00028005  00000+0  43965-3 0  9990
2 41887  34.9401 198.8185 0006851 277.8179  82.1766 15.52629701513212
STARLINK-1828           
1 46725U 20073BH  26068.73183806  .00049315  00000+0  76647-3 0  9998
2 46725  53.0554 236.2202 0001578  58.8994 301.2170 15.53474496297212
