[{"OBJECT_NAME":"CYGFM01","OBJECT_ID":"2016-078D","EPOCH":"2026-03-09T17:27:38.414880","MEAN_MOTION":15.52629701,"ECCENTRICITY":0.00068514,"INCLINATION":34.9401,"RA_OF_ASC_NODE":198.8185,"ARG_OF_PERICENTER":277.8179,"MEAN_ANOMALY":82.1766,"EPHEMERIS_TYPE":0,"CLASSIFICATION_TYPE":"U","NORAD_CAT_ID":41887,"ELEMENT_SET_NO":999,"REV_AT_EPOCH":51321,"BSTAR":0.00043964637,"MEAN_MOTION_DOT":0.00028005,"MEAN_MOTION_DDOT":0},{"OBJECT_NAME":"STARLINK-1828","OBJECT_ID":"2020-073BH","EPOCH":"2026-03-09T17:33:50.808384","MEAN_MOTION":15.53474496,"ECCENTRICITY":0.00015775,"INCLINATION":53.0554,"RA_OF_ASC_NODE":236.2202,"ARG_OF_PERICENTER":58.8994,"MEAN_ANOMALY":301.217,"EPHEMERIS_TYPE":0,"CLASSIFICATION_TYPE":"U","NORAD_CAT_ID":46725,"ELEMENT_SET_NO":999,"REV_AT_EPOCH":29721,"BSTAR":0.00076646935,"MEAN_MOTION_DOT":0.00049315,"MEAN_MOTION_DDOT":0}]
